FORMOSAT 7-3            
1 44343U 19036E   26068.82630502  .00006445  00000+0  37650-3 0  9997
2 44343  23.9981 141.9797 0001061 150.4425 209.6139 15.08933962368215
STARLINK-4270           
1 52863U 22062AK  26068.26894784  .00000253  00000+0  34003-4 0  9999
2 52863  53.2190  26.0089 0001549  93.4908 266.6262 15.08840708205865
